ASO-S                   
1 54029U 22129A   24176.83266251  .00000342  00000+0  96749-4 0  9996
2 54029  98.2679 181.8175 0015125 147.1158 213.0981 14.51369568 90613
HJ-2E                   
1 54035U 22132A   24176.83858519  .00010995  00000+0  49333-3 0  9992
2 54035  97.3835 183.0947 0012590 222.9297 137.0957 15.21293985 94523
COSMOS 2561             
1 54109U 22137A   24176.71483078  .00014662  00000+0  29714-3 0  9996
2 54109  97.0188 253.5096 0013120 111.3420 248.9233 15.46394695 94795
GONETS-M 23             
1 54150U 22139A   24176.79598158  .00000044  00000+0  24926-3 0  9997
2 54150  82.5059  77.1893 0021907   1.2964 358.8168 12.42905815 75909
GONETS-M 24             
1 54151U 22139B   24176.76870820  .00000048  00000+0  27558-3 0  9992
2 54151  82.4978  76.7554 0017132  11.8096 348.3382 12.42870074 75906
GONETS-M 25             
1 54152U 22139C   24176.83624169  .00000046  00000+0  25838-3 0  9991
2 54152  82.5042  77.0148 0020758   9.8017 350.3463 12.42895841 75914
SKIF-D                  
1 54153U 22139D   24175.36891210  .00000014  00000+0  00000+0 0  9997
2 54153  89.9904  96.7965 0006737  46.2831 313.8296  5.00438001 27897
MATS                    
1 54227U 22147A   24176.56546735  .00002677  00000+0  23518-3 0  9990
2 54227  97.6650 174.9960 0014409 104.6856 255.5964 14.97334028 89306
JILIN-1 GAOFEN 03D54    
1 54254U 22155D   24176.84673680  .00011810  00000+0  49540-3 0  9992
2 54254  97.5640 287.5721 0012093  63.2594 296.9879 15.23581487 88830
EOS-6 (OCEANSAT-3)      
1 54361U 22158A   24176.83127493  .00000448  00000+0  13525-3 0  9998
2 54361  98.3533 273.7566 0001417 114.8218 245.3122 14.47009145 83371
ANAND                   
1 54366U 22158F   24176.86658673  .00070448  00000+0  89672-3 0  9998
2 54366  97.4378 285.6539 0001672  26.3842 333.7499 15.59121521 88346
ASTROCAST-0304          
1 54367U 22158G   24176.86186525  .00011832  00000+0  35776-3 0  9999
2 54367  97.4422 279.8312 0008609  62.5884 297.6233 15.34336169 87933
ASTROCAST-0303          
1 54368U 22158H   24176.82835714  .00013157  00000+0  39747-3 0  9991
2 54368  97.4449 280.2664 0007727  69.3742 290.8328 15.34343346 87954
ASTROCAST-0302          
1 54369U 22158J   24176.82771986  .00012284  00000+0  37054-3 0  9991
2 54369  97.4452 280.0776 0007815  73.8104 286.3998 15.34407757 87940
ASTROCAST-0301          
1 54370U 22158K   24176.81254561  .00012025  00000+0  36325-3 0  9990
2 54370  97.4472 280.1890 0006609  75.8110 284.3867 15.34376925 87946
2022-167A               
1 54682U 22167A   24176.85483109  .00046403  00000+0  10886-2 0  9992
2 54682  97.5965 324.2131 0006596 118.7619 241.4290 15.41896088 85660
CAS-5A (FO-118)         
1 54684U 22167C   24176.85025494  .00023671  00000+0  80005-3 0  9996
2 54684  97.6067 321.8606 0010815 121.8932 238.3362 15.30592385 85473
DONGPO 09               
1 54685U 22167D   24176.86943137  .00010802  00000+0  50067-3 0  9998
2 54685  97.6165 319.2262 0006196 134.3251 225.8493 15.20242949 85273
DONGPO 08               
1 54686U 22167E   24176.82003878  .00010736  00000+0  49773-3 0  9992
2 54686  97.6113 318.7857 0009810 150.5142 209.6647 15.20210924 85264
2022-167F               
1 54687U 22167F   24176.86171754  .00013749  00000+0  68553-3 0  9990
2 54687  97.5973 318.5034 0009282 125.7982 234.4115 15.17620141 85282
DONGPO 10               
1 54689U 22167H   24176.86258769  .00010650  00000+0  49353-3 0  9999
2 54689  97.6193 319.4133 0011405 126.7793 233.4490 15.20214921 85273
2022-167M               
1 54693U 22167M   24176.87874205  .00065141  00000+0  12817-2 0  9993
2 54693  97.5994 325.9659 0007080 124.3643 235.8277 15.47010719 85719
JILIN-1 GAOFEN 03D48    
1 54695U 22167P   24176.87592720  .00011042  00000+0  50980-3 0  9999
2 54695  97.6128 319.0989 0013147 129.5819 230.6579 15.20312729 85281
STAR VIBE               
1 55009U 23001A   24176.85009644  .00007662  00000+0  35835-3 0  9998
2 55009  97.4228 234.4768 0009780 159.0332 201.1306 15.20000073 81677
BRO-8                   
1 55011U 23001C   24176.81873717  .00005555  00000+0  26552-3 0  9992
2 55011  97.4299 234.7854 0010784 160.8175 199.3467 15.19362839 81662
CONNECTA T1.2           
1 55012U 23001D   24176.12298493  .00007908  00000+0  34111-3 0  9993
2 55012  97.4306 235.1984 0011435 156.3907 203.7856 15.22753696 81625
BIRKELAND               
1 55015U 23001G   24176.81915375  .00006124  00000+0  26769-3 0  9996
2 55015  97.4311 236.3331 0010451 150.1348 210.0487 15.22407710 81760
ION SCV-008             
1 55051U 23001AU  24176.79143743  .00004437  00000+0  24074-3 0  9997
2 55051  97.6123 255.5417 0020208  20.6307 339.5736 15.14912243 81439
ION SCV-007             
1 55060U 23001BD  24176.52401103  .00000708  00000+0  11022-3 0  9991
2 55060  97.9981 239.2398 0013549 141.8361 218.3811 14.75972659 79581
NSL-2                   
1 55067U 23001BL  24176.70969606  .00504691  00000+0  22582-2 0  9997
2 55067  97.4116 247.3923 0005833 208.9237 151.1710 15.82900489 82498
TAUSAT-2                
1 55073U 23001BS  24176.75273311  .00023027  00000+0  72604-3 0  9990
2 55073  97.4243 239.5826 0013479 120.3686 239.8891 15.32799527 81993
FLOCK 4Y-23             
1 55080U 23001BZ  24176.14160692  .00013368  00000+0  47148-3 0  9990
2 55080  97.4253 238.3357 0013925 138.5070 221.7230 15.29289975 81862
HUYGENS                 
1 55093U 23001CN  24176.81938467  .00006047  00000+0  26383-3 0  9995
2 55093  97.4255 236.2883 0015176 134.4556 225.7925 15.22418693 81783
BDSAT-2                 
1 55098U 23001CT  24176.16061055  .00026408  00000+0  79395-3 0  9992
2 55098  97.4270 239.5393 0012967 132.8157 227.4178 15.34291438 81925
SHARJAHSAT-1            
1 55104U 23001CZ  24176.82445141  .00008692  00000+0  39300-3 0  9992
2 55104  97.4249 234.9487 0011297 160.4287 199.7384 15.21114418 81690
2023-003A               
1 55133U 23003A   24176.83068553  .00013899  00000+0  54389-3 0  9994
2 55133  97.2240 250.3647 0005360 184.3130 175.8064 15.25918486 80844
2023-007N               
1 55260U 23007N   24175.73979843  .05101846  24254-5  10623-2 0  9990
2 55260  97.2830 261.4877 0015632 263.2339  96.7177 16.30687971 81193
2023-007P               
1 55261U 23007P   24176.83127767  .00055324  00000+0  70358-3 0  9996
2 55261  97.3101 256.6048 0007045 201.7376 158.3582 15.59178720 80965
EOS-7                   
1 55562U 23019A   24176.50461334  .00026601  00000+0  44844-3 0  9995
2 55562  37.1758 188.7049 0004593 178.2897 181.7882 15.50816461 77439
HORUS 1                 
1 55690U 23025A   24176.81758562  .00008707  00000+0  37164-3 0  9994
2 55690  97.4227 252.0293 0002114 122.2989 237.8452 15.23134370 74070
HORUS 2                 
1 55844U 23032A   24176.85191982  .00008233  00000+0  35018-3 0  9994
2 55844  97.4277 252.2773 0004158 129.1208 231.0399 15.23267337 71513
GLOBAL-19               
1 55982U 23041B   24176.04941629  .00020202  00000+0  53132-3 0  9996
2 55982  42.0106 100.7417 0003614 250.9977 109.0471 15.38142525 70541
DEWASAT-2               
1 56180U 23054C   24176.81562373  .00040679  00000+0  86565-3 0  9997
2 56180  97.3679  75.3603 0008146 131.8447 228.3498 15.44821402 67341
KILICSAT                
1 56181U 23054D   24176.79308248  .00026084  00000+0  66320-3 0  9995
2 56181  97.3611  74.0692 0008394 134.4402 225.7532 15.39559772 67282
SSS-2B                  
1 56184U 23054G   24176.81381675  .00031578  00000+0  75155-3 0  9996
2 56184  97.3680  74.8714 0009079 132.8549 227.3462 15.41524142 67319
BRO-9                   
1 56185U 23054H   24176.81427381  .00009666  00000+0  32891-3 0  9995
2 56185  97.3612  71.9298 0008985 136.9985 223.1960 15.30596441 67152
CIRBE                   
1 56188U 23054L   24176.57361027  .00059422  00000+0  92280-3 0  9998
2 56188  97.3610  76.6724 0007976 124.4607 235.7401 15.53739926 67433
ION SCV-010             
1 56192U 23054Q   24175.85438722  .00007216  00000+0  38309-3 0  9996
2 56192  97.4684  64.4424 0017619 204.7948 155.2440 15.15492887 66211
GHOST-1                 
1 56195U 23054T   24176.25134742  .00012202  00000+0  40556-3 0  9997
2 56195  97.3633  71.7465 0010511 129.1685 231.0492 15.31278094 67081
GHOST-2                 
1 56197U 23054V   24176.69818959  .00012091  00000+0  37868-3 0  9994
2 56197  97.3619  72.7865 0010935 127.2045 233.0197 15.33185723 67195
TOMORROW-R1             
1 56199U 23054X   24176.61569781  .00018512  00000+0  51392-3 0  9996
2 56199  97.3652  73.7814 0010159 125.6983 234.5208 15.36898892 67246
FACSAT-2                
1 56205U 23054AD  24176.86458018  .00015815  00000+0  45960-3 0  9998
2 56205  97.3674  74.3362 0013653 118.2649 241.9974 15.35459920 67293
CONNECTA T2.1           
1 56210U 23054AJ  24176.82398574  .00013348  00000+0  39860-3 0  9991
2 56210  97.3597  73.3457 0012479 116.2250 244.0277 15.34655508 67253
INSPIRE-SAT 7           
1 56211U 23054AK  24176.48908663  .00070786  00000+0  10146-2 0  9994
2 56211  97.3618  77.8732 0011001 108.7908 251.4541 15.55860510 67495
ROSEYCUBESAT-1          
1 56212U 23054AL  24176.85208232  .00096665  00000+0  11409-2 0  9998
2 56212  97.3635  79.1024 0011442 108.5719 251.6782 15.60941885 67604
LS3C                    
1 56214U 23054AN  24176.27196803  .00051884  00000+0  90425-3 0  9996
2 56214  97.3615  76.6831 0011246 109.1354 251.1116 15.50507540 67416
IRIS-C                  
1 56221U 23054AV  24176.28988544  .00049911  00000+0  90886-3 0  9995
2 56221  97.3600  75.4650 0010674 113.1192 247.1186 15.49275890 67323
DISCO-1                 
1 56222U 23054AW  24176.61672017  .00026609  00000+0  66415-3 0  9998
2 56222  97.3595  74.0409 0011470 122.3700 237.8658 15.40089059 67260
VIREO                   
1 56223U 23054AX  24176.84862534  .00164642  00000+0  14957-2 0  9992
2 56223  97.3555  78.6465 0010620 121.3451 238.8851 15.67398914 67603
